start=new Date('2022-12-20T00:00:00.000Z').valueOf();
sats=[{"ARG_OF_PERICENTER":"39.1936","EPOCH":"2022-12-19T08:13:54.054336","APOAPSIS":"541.394","NORAD_CAT_ID":"52563","BSTAR":"0.00006707500000","OBJECT_TYPE":"PAYLOAD","ELEMENT_SET_NO":"999","RCS_SIZE":"LARGE","OBJECT_NAME":"STARLINK-3942","MEAN_ELEMENT_THEORY":"SGP4","PERIOD":"95.438","INCLINATION":"53.2178","SITE":"AFWTR","TLE_LINE1":"1 52563U 22051AG  22353.34298674  .00000779  00000-0  67075-4 0  9991","EPHEMERIS_TYPE":"0","SEMIMAJOR_AXIS":"6917.894","OBJECT_ID":"2022-051AG","TLE_LINE2":"2 52563  53.2178  14.9513 0002363  39.1936 320.9227 15.08835414 33782","COUNTRY_CODE":"US","MEAN_ANOMALY":"320.9227","GP_ID":"220935848","FILE":"3711365","MEAN_MOTION":"15.08835414","PERIAPSIS":"538.125","MEAN_MOTION_DOT":"0.00000779","CLASSIFICATION_TYPE":"U","DECAY_DATE":null,"ECCENTRICITY":"0.00023630","CENTER_NAME":"EARTH","REV_AT_EPOCH":"3378","MEAN_MOTION_DDOT":"0.0000000000000","REF_FRAME":"TEME","RA_OF_ASC_NODE":"14.9513","LAUNCH_DATE":"2022-05-13","TIME_SYSTEM":"UTC"},{"APOAPSIS":"541.540","NORAD_CAT_ID":"52564","ARG_OF_PERICENTER":"31.2609","EPOCH":"2022-12-19T19:10:59.814624","OBJECT_TYPE":"PAYLOAD","BSTAR":"0.00015586000000","MEAN_ELEMENT_THEORY":"SGP4","OBJECT_NAME":"STARLINK-3959","PERIOD":"95.438","ELEMENT_SET_NO":"999","RCS_SIZE":"LARGE","INCLINATION":"53.2164","TLE_LINE1":"1 52564U 22051AH  22353.79930341  .00002193  00000-0  15586-3 0  9996","SITE":"AFWTR","SEMIMAJOR_AXIS":"6917.882","OBJECT_ID":"2022-051AH","EPHEMERIS_TYPE":"0","TLE_LINE2":"2 52564  53.2164  12.9012 0002591  31.2609 328.8537 15.08839376 33853","COUNTRY_CODE":"US","MEAN_ANOMALY":"328.8537","CLASSIFICATION_TYPE":"U","PERIAPSIS":"537.955","GP_ID":"220969263","FILE":"3711774","MEAN_MOTION":"15.08839376","MEAN_MOTION_DOT":"0.00002193","ECCENTRICITY":"0.00025910","DECAY_DATE":null,"REV_AT_EPOCH":"3385","CENTER_NAME":"EARTH","LAUNCH_DATE":"2022-05-13","MEAN_MOTION_DDOT":"0.0000000000000","RA_OF_ASC_NODE":"12.9012","REF_FRAME":"TEME","TIME_SYSTEM":"UTC"},{"REV_AT_EPOCH":"3405","CENTER_NAME":"EARTH","REF_FRAME":"TEME","MEAN_MOTION_DDOT":"0.0000000000000","RA_OF_ASC_NODE":"358.1173","LAUNCH_DATE":"2022-05-13","TIME_SYSTEM":"UTC","EPHEMERIS_TYPE":"0","OBJECT_ID":"2022-051AJ","SEMIMAJOR_AXIS":"6917.870","MEAN_ANOMALY":"318.5057","COUNTRY_CODE":"US","TLE_LINE2":"2 52565  53.2170 358.1173 0002611  41.6134 318.5057 15.08843477 34058","MEAN_MOTION_DOT":"0.00010598","GP_ID":"220970010","FILE":"3711774","PERIAPSIS":"537.929","MEAN_MOTION":"15.08843477","CLASSIFICATION_TYPE":"U","DECAY_DATE":null,"ECCENTRICITY":"0.00026110","RCS_SIZE":"LARGE","ELEMENT_SET_NO":"999","PERIOD":"95.437","MEAN_ELEMENT_THEORY":"SGP4","OBJECT_NAME":"STARLINK-3911","INCLINATION":"53.2170","TLE_LINE1":"1 52565U 22051AJ  22353.75101492  .00010598  00000-0  68288-3 0  9995","SITE":"AFWTR","EPOCH":"2022-12-19T18:01:27.689088","ARG_OF_PERICENTER":"41.6134","APOAPSIS":"541.541","NORAD_CAT_ID":"52565","BSTAR":"0.00068288000000","OBJECT_TYPE":"PAYLOAD"},{"ARG_OF_PERICENTER":"34.8382","EPOCH":"2022-12-19T18:39:11.576448","NORAD_CAT_ID":"52566","APOAPSIS":"541.547","BSTAR":"0.00015226000000","OBJECT_TYPE":"PAYLOAD","ELEMENT_SET_NO":"999","RCS_SIZE":"MEDIUM","OBJECT_NAME":"STARLINK-3938","MEAN_ELEMENT_THEORY":"SGP4","PERIOD":"95.437","INCLINATION":"53.2189","TLE_LINE1":"1 52566U 22051AK  22353.77721732  .00002136  00000-0  15226-3 0  9996","SITE":"AFWTR","EPHEMERIS_TYPE":"0","SEMIMAJOR_AXIS":"6917.855","OBJECT_ID":"2022-051AK","TLE_LINE2":"2 52566  53.2189  13.0106 0002641  34.8382 325.2783 15.08848414 33926","COUNTRY_CODE":"US","MEAN_ANOMALY":"325.2783","PERIAPSIS":"537.893","GP_ID":"220978247","FILE":"3712066","MEAN_MOTION":"15.08848414","MEAN_MOTION_DOT":"0.00002136","CLASSIFICATION_TYPE":"U","DECAY_DATE":null,"ECCENTRICITY":"0.00026410","CENTER_NAME":"EARTH","REV_AT_EPOCH":"3392","MEAN_MOTION_DDOT":"0.0000000000000","REF_FRAME":"TEME","RA_OF_ASC_NODE":"13.0106","LAUNCH_DATE":"2022-05-13","TIME_SYSTEM":"UTC"},{"DECAY_DATE":null,"ECCENTRICITY":"0.00028340","FILE":"3712066","GP_ID":"220978714","MEAN_MOTION":"15.08839576","PERIAPSIS":"537.786","MEAN_MOTION_DOT":"0.00000550","CLASSIFICATION_TYPE":"U","TLE_LINE2":"2 52567  53.2201 358.1423 0002834  29.6531 330.4622 15.08839576 34121","COUNTRY_CODE":"US","MEAN_ANOMALY":"330.4622","EPHEMERIS_TYPE":"0","SEMIMAJOR_AXIS":"6917.882","OBJECT_ID":"2022-051AL","TIME_SYSTEM":"UTC","RA_OF_ASC_NODE":"358.1423","MEAN_MOTION_DDOT":"0.0000000000000","REF_FRAME":"TEME","LAUNCH_DATE":"2022-05-13","CENTER_NAME":"EARTH","REV_AT_EPOCH":"3412","BSTAR":"0.00005269700000","OBJECT_TYPE":"PAYLOAD","ARG_OF_PERICENTER":"29.6531","EPOCH":"2022-12-19T17:50:50.544384","APOAPSIS":"541.707","NORAD_CAT_ID":"52567","TLE_LINE1":"1 52567U 22051AL  22353.74364056  .00000550  00000-0  52697-4 0  9998","SITE":"AFWTR","INCLINATION":"53.2201","ELEMENT_SET_NO":"999","RCS_SIZE":"LARGE","MEAN_ELEMENT_THEORY":"SGP4","OBJECT_NAME":"STARLINK-3929","PERIOD":"95.438"},{"ECCENTRICITY":"0.00025190","DECAY_DATE":null,"CLASSIFICATION_TYPE":"U","PERIAPSIS":"537.951","GP_ID":"220978251","FILE":"3712066","MEAN_MOTION":"15.08856943","MEAN_MOTION_DOT":"0.00013485","TLE_LINE2":"2 52568  53.2177 358.2003 0002519  29.6350 330.4785 15.08856943 34125","MEAN_ANOMALY":"330.4785","COUNTRY_CODE":"US","SEMIMAJOR_AXIS":"6917.829","OBJECT_ID":"2022-051AM","EPHEMERIS_TYPE":"0","TIME_SYSTEM":"UTC","LAUNCH_DATE":"2022-05-13","MEAN_MOTION_DDOT":"0.0000000000000","RA_OF_ASC_NODE":"358.2003","REF_FRAME":"TEME","CENTER_NAME":"EARTH","REV_AT_EPOCH":"3412","BSTAR":"0.00086331000000","OBJECT_TYPE":"PAYLOAD","NORAD_CAT_ID":"52568","APOAPSIS":"541.436","ARG_OF_PERICENTER":"29.6350","EPOCH":"2022-12-19T17:34:56.977824","TLE_LINE1":"1 52568U 22051AM  22353.73260391  .00013485  00000-0  86331-3 0  9997","SITE":"AFWTR","INCLINATION":"53.2177","MEAN_ELEMENT_THEORY":"SGP4","OBJECT_NAME":"STARLINK-3930","PERIOD":"95.436","ELEMENT_SET_NO":"999","RCS_SIZE":"LARGE"},{"NORAD_CAT_ID":"52569","APOAPSIS":"541.754","EPOCH":"2022-12-19T17:45:33.015744","ARG_OF_PERICENTER":"31.7686","BSTAR":"0.00089803000000","OBJECT_TYPE":"PAYLOAD","INCLINATION":"53.2172","SITE":"AFWTR","TLE_LINE1":"1 52569U 22051AN  22353.73996546  .00014043  00000-0  89803-3 0  9994","PERIOD":"95.436","MEAN_ELEMENT_THEORY":"SGP4","OBJECT_NAME":"STARLINK-3927","RCS_SIZE":"LARGE","ELEMENT_SET_NO":"999","CLASSIFICATION_TYPE":"U","MEAN_MOTION_DOT":"0.00014043","GP_ID":"220978275","MEAN_MOTION":"15.08863441","FILE":"3712073","PERIAPSIS":"537.594","ECCENTRICITY":"0.00030070","DECAY_DATE":null,"OBJECT_ID":"2022-051AN","SEMIMAJOR_AXIS":"6917.809","EPHEMERIS_TYPE":"0","MEAN_ANOMALY":"328.3487","COUNTRY_CODE":"US","TLE_LINE2":"2 52569  53.2172 358.1678 0003007  31.7686 328.3487 15.08863441 34123","TIME_SYSTEM":"UTC","REV_AT_EPOCH":"3412","CENTER_NAME":"EARTH","LAUNCH_DATE":"2022-05-13","MEAN_MOTION_DDOT":"0.0000000000000","REF_FRAME":"TEME","RA_OF_ASC_NODE":"358.1678"},{"ELEMENT_SET_NO":"999","RCS_SIZE":"LARGE","OBJECT_NAME":"STARLINK-3924","MEAN_ELEMENT_THEORY":"SGP4","PERIOD":"95.438","INCLINATION":"53.2174","TLE_LINE1":"1 52570U 22051AP  22353.72892483  .00001131  00000-0  89200-4 0  9996","SITE":"AFWTR","ARG_OF_PERICENTER":"36.4106","EPOCH":"2022-12-19T17:29:39.105312","APOAPSIS":"541.317","NORAD_CAT_ID":"52570","OBJECT_TYPE":"PAYLOAD","BSTAR":"0.00008920000000","REV_AT_EPOCH":"3405","CENTER_NAME":"EARTH","RA_OF_ASC_NODE":"358.2046","MEAN_MOTION_DDOT":"0.0000000000000","REF_FRAME":"TEME","LAUNCH_DATE":"2022-05-13","TIME_SYSTEM":"UTC","EPHEMERIS_TYPE":"0","SEMIMAJOR_AXIS":"6917.894","OBJECT_ID":"2022-051AP","TLE_LINE2":"2 52570  53.2174 358.2046 0002253  36.4106 323.7039 15.08835694 34051","COUNTRY_CODE":"US","MEAN_ANOMALY":"323.7039","GP_ID":"220968764","MEAN_MOTION":"15.08835694","FILE":"3711774","PERIAPSIS":"538.200","MEAN_MOTION_DOT":"0.00001131","CLASSIFICATION_TYPE":"U","DECAY_DATE":null,"ECCENTRICITY":"0.00022530"},{"INCLINATION":"53.2146","SITE":"AFWTR","TLE_LINE1":"1 52574U 22051AQ  22354.00125588  .00011501  00000-0  73926-3 0  9996","PERIOD":"95.437","MEAN_ELEMENT_THEORY":"SGP4","OBJECT_NAME":"STARLINK-3901","RCS_SIZE":"LARGE","ELEMENT_SET_NO":"999","APOAPSIS":"541.134","NORAD_CAT_ID":"52574","EPOCH":"2022-12-20T00:01:48.508032","ARG_OF_PERICENTER":"64.0594","OBJECT_TYPE":"PAYLOAD","BSTAR":"0.00073926000000","TIME_SYSTEM":"UTC","REV_AT_EPOCH":"3416","CENTER_NAME":"EARTH","LAUNCH_DATE":"2022-05-13","MEAN_MOTION_DDOT":"0.0000000000000","RA_OF_ASC_NODE":"356.9994","REF_FRAME":"TEME","CLASSIFICATION_TYPE":"U","MEAN_MOTION_DOT":"0.00011501","GP_ID":"220978732","PERIAPSIS":"538.273","FILE":"3712067","MEAN_MOTION":"15.08853666","ECCENTRICITY":"0.00020680","DECAY_DATE":null,"OBJECT_ID":"2022-051AQ","SEMIMAJOR_AXIS":"6917.839","EPHEMERIS_TYPE":"0","COUNTRY_CODE":"US","MEAN_ANOMALY":"296.0611","TLE_LINE2":"2 52574  53.2146 356.9994 0002068  64.0594 296.0611 15.08853666 34162"},{"RCS_SIZE":"LARGE","ELEMENT_SET_NO":"999","PERIOD":"95.437","OBJECT_NAME":"STARLINK-3920","MEAN_ELEMENT_THEORY":"SGP4","SITE":"AFWTR","TLE_LINE1":"1 52575U 22051AR  22353.32781026  .00003772  00000-0  25490-3 0  9990","INCLINATION":"53.2193","BSTAR":"0.00025490000000","OBJECT_TYPE":"PAYLOAD","EPOCH":"2022-12-19T07:52:02.806464","ARG_OF_PERICENTER":"32.7591","NORAD_CAT_ID":"52575","APOAPSIS":"541.533","MEAN_MOTION_DDOT":"0.0000000000000","RA_OF_ASC_NODE":"0.0087","REF_FRAME":"TEME","LAUNCH_DATE":"2022-05-13","REV_AT_EPOCH":"3399","CENTER_NAME":"EARTH","TIME_SYSTEM":"UTC","COUNTRY_CODE":"US","MEAN_ANOMALY":"327.3563","TLE_LINE2":"2 52575  53.2193   0.0087 0002618  32.7591 327.3563 15.08847527 33998","EPHEMERIS_TYPE":"0","OBJECT_ID":"2022-051AR","SEMIMAJOR_AXIS":"6917.857","DECAY_DATE":null,"ECCENTRICITY":"0.00026180","MEAN_MOTION_DOT":"0.00003772","FILE":"3711365","GP_ID":"220936350","MEAN_MOTION":"15.08847527","PERIAPSIS":"537.911","CLASSIFICATION_TYPE":"U"}];
